{"type": "FeatureCollection", "features": [ {"type": "Feature", "properties": {"norad_id": 58662, "name": "TIANMU-1 21", "group": "weather", "lat": 72.05844608792417, "lon": -42.818731942615564, "alt_km": 464.17166391781484, "timestamp": "2025-12-25T22:42:16.640035+00:00", "meta": {"OBJECT_NAME": "TIANMU-1 21", "OBJECT_ID": "2023-208C", "EPOCH": "2025-12-25T19:06:21.860640", "MEAN_MOTION": 15.31829938, "ECCENTRICITY": 0.0006498, "INCLINATION": 97.4374, "RA_OF_ASC_NODE": 113.2369, "ARG_OF_PERICENTER": 206.5738, "MEAN_ANOMALY": 153.5171, "EPHEMERIS_TYPE": 0, "CLASSIFICATION_TYPE": "U", "NORAD_CAT_ID": 58662, "ELEMENT_SET_NO": 999, "REV_AT_EPOCH": 11099, "BSTAR": 0.0004024, "MEAN_MOTION_DOT": 0.00012302, "MEAN_MOTION_DDOT": 0}, "tle": {"line1": "1 58662U 23208C   25359.79608635  .00012302  00000+0  40240-3 0  9990", "line2": "2 58662  97.4374 113.2369 0006498 206.5738 153.5171 15.31829938110998"}}, "geometry": {"type": "Point", "coordinates": [-42.818731942615564, 72.05844608792417]}}, {"type": "Feature", "properties": {"norad_id": 58663, "name": "TIANMU-1 22", "group": "weather", "lat": -19.870388262462654, "lon": -71.69461873200683, "alt_km": 485.63806270874557, "timestamp": "2025-12-25T22:42:16.640046+00:00", "meta": {"OBJECT_NAME": "TIANMU-1 22", "OBJECT_ID": "2023-208D", "EPOCH": "2025-12-25T18:41:17.996928", "MEAN_MOTION": 15.27823291, "ECCENTRICITY": 0.0003023, "INCLINATION": 97.438, "RA_OF_ASC_NODE": 110.8447, "ARG_OF_PERICENTER": 220.7907, "MEAN_ANOMALY": 139.3106, "EPHEMERIS_TYPE": 0, "CLASSIFICATION_TYPE": "U", "NORAD_CAT_ID": 58663, "ELEMENT_SET_NO": 999, "REV_AT_EPOCH": 11082, "BSTAR": 0.00034815, "MEAN_MOTION_DOT": 9.388e-05, "MEAN_MOTION_DDOT": 0}, "tle": {"line1": "1 58663U 23208D   25359.77868052  .00009388  00000+0  34815-3 0  9991", "line2": "2 58663  97.4380 110.8447 0003023 220.7907 139.3106 15.27823291110826"}}, "geometry": {"type": "Point", "coordinates": [-71.69461873200683, -19.870388262462654]}}, {"type": "Feature", "properties": {"norad_id": 58700, "name": "TIANMU-1 15", "group": "weather", "lat": 3.146126714521987, "lon": 1.7788553531806444, "alt_km": 492.459782861707, "timestamp": "2025-12-25T22:42:16.640056+00:00", "meta": {"OBJECT_NAME": "TIANMU-1 15", "OBJECT_ID": "2024-004A", "EPOCH": "2025-12-25T17:12:20.997216", "MEAN_MOTION": 15.24578219, "ECCENTRICITY": 0.0006091, "INCLINATION": 97.463, "RA_OF_ASC_NODE": 181.1378, "ARG_OF_PERICENTER": 234.9187, "MEAN_ANOMALY": 125.148, "EPHEMERIS_TYPE": 0, "CLASSIFICATION_TYPE": "U", "NORAD_CAT_ID": 58700, "ELEMENT_SET_NO": 999, "REV_AT_EPOCH": 10932, "BSTAR": 0.0003207, "MEAN_MOTION_DOT": 7.835e-05, "MEAN_MOTION_DDOT": 0}, "tle": {"line1": "1 58700U 24004A   25359.71690969  .00007835  00000+0  32070-3 0  9998", "line2": "2 58700  97.4630 181.1378 0006091 234.9187 125.1480 15.24578219109320"}}, "geometry": {"type": "Point", "coordinates": [1.7788553531806444, 3.146126714521987]}}, {"type": "Feature", "properties": {"norad_id": 58701, "name": "TIANMU-1 16", "group": "weather", "lat": -77.22701509107125, "lon": -34.54994620174655, "alt_km": 496.5192260091553, "timestamp": "2025-12-25T22:42:16.640066+00:00", "meta": {"OBJECT_NAME": "TIANMU-1 16", "OBJECT_ID": "2024-004B", "EPOCH": "2025-12-25T18:25:08.062752", "MEAN_MOTION": 15.24606377, "ECCENTRICITY": 0.0004437, "INCLINATION": 97.457, "RA_OF_ASC_NODE": 180.5665, "ARG_OF_PERICENTER": 236.4619, "MEAN_ANOMALY": 123.6195, "EPHEMERIS_TYPE": 0, "CLASSIFICATION_TYPE": "U", "NORAD_CAT_ID": 58701, "ELEMENT_SET_NO": 999, "REV_AT_EPOCH": 10933, "BSTAR": 0.00029895, "MEAN_MOTION_DOT": 7.303e-05, "MEAN_MOTION_DDOT": 0}, "tle": {"line1": "1 58701U 24004B   25359.76745443  .00007303  00000+0  29895-3 0  9993", "line2": "2 58701  97.4570 180.5665 0004437 236.4619 123.6195 15.24606377109339"}}, "geometry": {"type": "Point", "coordinates": [-34.54994620174655, -77.22701509107125]}}, {"type": "Feature", "properties": {"norad_id": 58702, "name": "TIANMU-1 17", "group": "weather", "lat": -13.83218814599368, "lon": -176.98992566930897, "alt_km": 497.35835068592223, "timestamp": "2025-12-25T22:42:16.640076+00:00", "meta": {"OBJECT_NAME": "TIANMU-1 17", "OBJECT_ID": "2024-004C", "EPOCH": "2025-12-25T18:02:24.974016", "MEAN_MOTION": 15.24648937, "ECCENTRICITY": 0.0003598, "INCLINATION": 97.4603, "RA_OF_ASC_NODE": 180.9676, "ARG_OF_PERICENTER": 237.3164, "MEAN_ANOMALY": 122.7727, "EPHEMERIS_TYPE": 0, "CLASSIFICATION_TYPE": "U", "NORAD_CAT_ID": 58702, "ELEMENT_SET_NO": 999, "REV_AT_EPOCH": 10932, "BSTAR": 0.00029261, "MEAN_MOTION_DOT": 7.155e-05, "MEAN_MOTION_DDOT": 0}, "tle": {"line1": "1 58702U 24004C   25359.75167794  .00007155  00000+0  29261-3 0  9992", "line2": "2 58702  97.4603 180.9676 0003598 237.3164 122.7727 15.24648937109323"}}, "geometry": {"type": "Point", "coordinates": [-176.98992566930897, -13.83218814599368]}}, {"type": "Feature", "properties": {"norad_id": 58703, "name": "TIANMU-1 18", "group": "weather", "lat": 74.95213451511913, "lon": 152.18087964191048, "alt_km": 486.6550019480537, "timestamp": "2025-12-25T22:42:16.640086+00:00", "meta": {"OBJECT_NAME": "TIANMU-1 18", "OBJECT_ID": "2024-004D", "EPOCH": "2025-12-25T17:38:34.554624", "MEAN_MOTION": 15.24631117, "ECCENTRICITY": 0.0002998, "INCLINATION": 97.462, "RA_OF_ASC_NODE": 181.1491, "ARG_OF_PERICENTER": 233.8922, "MEAN_ANOMALY": 126.2038, "EPHEMERIS_TYPE": 0, "CLASSIFICATION_TYPE": "U", "NORAD_CAT_ID": 58703, "ELEMENT_SET_NO": 999, "REV_AT_EPOCH": 10932, "BSTAR": 0.0003034, "MEAN_MOTION_DOT": 7.418e-05, "MEAN_MOTION_DDOT": 0}, "tle": {"line1": "1 58703U 24004D   25359.73512216  .00007418  00000+0  30340-3 0  9996", "line2": "2 58703  97.4620 181.1491 0002998 233.8922 126.2038 15.24631117109323"}}, "geometry": {"type": "Point", "coordinates": [152.18087964191048, 74.95213451511913]}}, {"type": "Feature", "properties": {"norad_id": 58990, "name": "INSAT-3DS", "group": "weather", "lat": 0.06062171924215812, "lon": 157.35645880823705, "alt_km": 35788.85919501246, "timestamp": "2025-12-25T22:42:16.640097+00:00", "meta": {"OBJECT_NAME": "INSAT-3DS", "OBJECT_ID": "2024-033A", "EPOCH": "2025-12-25T17:45:02.050848", "MEAN_MOTION": 1.00271114, "ECCENTRICITY": 0.0001287, "INCLINATION": 0.0614, "RA_OF_ASC_NODE": 99.3053, "ARG_OF_PERICENTER": 176.3805, "MEAN_ANOMALY": 167.1768, "EPHEMERIS_TYPE": 0, "CLASSIFICATION_TYPE": "U", "NORAD_CAT_ID": 58990, "ELEMENT_SET_NO": 999, "REV_AT_EPOCH": 4532, "BSTAR": 0, "MEAN_MOTION_DOT": -1.35e-06, "MEAN_MOTION_DDOT": 0}, "tle": {"line1": "1 58990U 24033A   25359.73960707 -.00000135  00000+0  00000+0 0  9994", "line2": "2 58990   0.0614  99.3053 0001287 176.3805 167.1768  1.00271114 45328"}}, "geometry": {"type": "Point", "coordinates": [157.35645880823705, 0.06062171924215812]}}, {"type": "Feature", "properties": {"norad_id": 59051, "name": "METEOR-M2 4", "group": "weather", "lat": 79.25569591287697, "lon": -96.95306974519332, "alt_km": 812.479749681901, "timestamp": "2025-12-25T22:42:16.640108+00:00", "meta": {"OBJECT_NAME": "METEOR-M2 4", "OBJECT_ID": "2024-039A", "EPOCH": "2025-12-25T18:56:11.118048", "MEAN_MOTION": 14.2240327, "ECCENTRICITY": 0.0006365, "INCLINATION": 98.6785, "RA_OF_ASC_NODE": 316.4944, "ARG_OF_PERICENTER": 319.1332, "MEAN_ANOMALY": 40.9368, "EPHEMERIS_TYPE": 0, "CLASSIFICATION_TYPE": "U", "NORAD_CAT_ID": 59051, "ELEMENT_SET_NO": 999, "REV_AT_EPOCH": 9461, "BSTAR": 4.1493e-05, "MEAN_MOTION_DOT": 4.9e-07, "MEAN_MOTION_DDOT": 0}, "tle": {"line1": "1 59051U 24039A   25359.78901757  .00000049  00000+0  41493-4 0  9993", "line2": "2 59051  98.6785 316.4944 0006365 319.1332  40.9368 14.22403270 94613"}}, "geometry": {"type": "Point", "coordinates": [-96.95306974519332, 79.25569591287697]}}, {"type": "Feature", "properties": {"norad_id": 60133, "name": "GOES 19", "group": "weather", "lat": 0.0007774188279688127, "lon": 0.08316327908495763, "alt_km": 35783.001081986295, "timestamp": "2025-12-25T22:42:16.640119+00:00", "meta": {"OBJECT_NAME": "GOES 19", "OBJECT_ID": "2024-119A", "EPOCH": "2025-12-25T04:31:42.625056", "MEAN_MOTION": 1.0027105, "ECCENTRICITY": 0.00010365, "INCLINATION": 0.0152, "RA_OF_ASC_NODE": 183.0311, "ARG_OF_PERICENTER": 137.5029, "MEAN_ANOMALY": 126.1624, "EPHEMERIS_TYPE": 0, "CLASSIFICATION_TYPE": "U", "NORAD_CAT_ID": 60133, "ELEMENT_SET_NO": 999, "REV_AT_EPOCH": 521, "BSTAR": 0, "MEAN_MOTION_DOT": -2.27e-06, "MEAN_MOTION_DDOT": 0}, "tle": {"line1": "1 60133U 24119A   25359.18868779 -.00000227  00000+0  00000+0 0  9998", "line2": "2 60133   0.0152 183.0311 0001036 137.5029 126.1624  1.00271050  5213"}}, "geometry": {"type": "Point", "coordinates": [0.08316327908495763, 0.0007774188279688127]}}, {"type": "Feature", "properties": {"norad_id": 65815, "name": "FENGYUN 3H", "group": "weather", "lat": -23.81154736125019, "lon": 115.39419485258897, "alt_km": 831.1583379563335, "timestamp": "2025-12-25T22:42:16.640130+00:00", "meta": {"OBJECT_NAME": "FENGYUN 3H", "OBJECT_ID": "2025-219A", "EPOCH": "2025-12-25T18:21:52.357248", "MEAN_MOTION": 14.19908082, "ECCENTRICITY": 8.53e-05, "INCLINATION": 98.6602, "RA_OF_ASC_NODE": 299.0737, "ARG_OF_PERICENTER": 109.3439, "MEAN_ANOMALY": 250.783, "EPHEMERIS_TYPE": 0, "CLASSIFICATION_TYPE": "U", "NORAD_CAT_ID": 65815, "ELEMENT_SET_NO": 999, "REV_AT_EPOCH": 1277, "BSTAR": 6.4723e-05, "MEAN_MOTION_DOT": 9.4e-07, "MEAN_MOTION_DDOT": 0}, "tle": {"line1": "1 65815U 25219A   25359.76518932  .00000094  00000+0  64723-4 0  9997", "line2": "2 65815  98.6602 299.0737 0000853 109.3439 250.7830 14.19908082 12774"}}, "geometry": {"type": "Point", "coordinates": [115.39419485258897, -23.81154736125019]}}]}